[
    {
        "Altitude(m)": 703817.1350398053,
        "Argument of Periapsis(deg)": 0.009112096949301655,
        "Eccentricity": 0.0,
        "Inclination(deg)": 45.0,
        "Latitude(deg)": 27.03810013329127,
        "Longitude(deg)": -91.11853907285,
        "Mean Anomaly(deg)": -219.86432668201533,
        "RAAN(deg)": 219.99139844683344,
        "Satellite Name": "Constellation 1 976",
        "Satellite Number": 976,
        "Semi-Major Axis(m)": 7083131.272910544,
        "Time(s)": 152
    },
    {
        "Altitude(m)": 703811.8898115437,
        "Argument of Periapsis(deg)": 0.009172044955547059,
        "Eccentricity": 0.0,
        "Inclination(deg)": 45.0,
        "Latitude(deg)": 27.00091635916141,
        "Longitude(deg)": -91.06869990878722,
        "Mean Anomaly(deg)": -219.80362554176543,
        "RAAN(deg)": 219.9913418576679,
        "Satellite Name": "Constellation 1 976",
        "Satellite Number": 976,
        "Semi-Major Axis(m)": 7083131.272910544,
        "Time(s)": 153
    },
    {
        "Altitude(m)": 703806.6521126678,
        "Argument of Periapsis(deg)": 0.009231992961792466,
        "Eccentricity": 0.0,
        "Inclination(deg)": 45.0,
        "Latitude(deg)": 26.96371175592072,
        "Longitude(deg)": -91.0188962172183,
        "Mean Anomaly(deg)": -219.74292440151558,
        "RAAN(deg)": 219.9912852685023,
        "Satellite Name": "Constellation 1 976",
        "Satellite Number": 976,
        "Semi-Major Axis(m)": 7083131.272910544,
        "Time(s)": 154
    },
    {
        "Altitude(m)": 703801.421981428,
        "Argument of Periapsis(deg)": 0.009291940968037872,
        "Eccentricity": 0.0,
        "Inclination(deg)": 45.0,
        "Latitude(deg)": 26.926486370093173,
        "Longitude(deg)": -90.96912793769259,
        "Mean Anomaly(deg)": -219.68222326126562,
        "RAAN(deg)": 219.99122867933676,
        "Satellite Name": "Constellation 1 976",
        "Satellite Number": 976,
        "Semi-Major Axis(m)": 7083131.272910544,
        "Time(s)": 155
    },
    {
        "Altitude(m)": 703796.1994560764,
        "Argument of Periapsis(deg)": 0.009351888974283276,
        "Eccentricity": 0.0,
        "Inclination(deg)": 45.0,
        "Latitude(deg)": 26.889240248135156,
        "Longitude(deg)": -90.91939517784397,
        "Mean Anomaly(deg)": -219.62152212101572,
        "RAAN(deg)": 219.99117209017115,
        "Satellite Name": "Constellation 1 976",
        "Satellite Number": 976,
        "Semi-Major Axis(m)": 7083131.272910544,
        "Time(s)": 156
    },
    {
        "Altitude(m)": 703790.9845748238,
        "Argument of Periapsis(deg)": 0.00941183698052868,
        "Eccentricity": 0.0,
        "Inclination(deg)": 45.0,
        "Latitude(deg)": 26.851973436434932,
        "Longitude(deg)": -90.86969754100271,
        "Mean Anomaly(deg)": -219.5608209807658,
        "RAAN(deg)": 219.9911155010056,
        "Satellite Name": "Constellation 1 976",
        "Satellite Number": 976,
        "Semi-Major Axis(m)": 7083131.272910544,
        "Time(s)": 157
    },
    {
        "Altitude(m)": 703785.7773758766,
        "Argument of Periapsis(deg)": 0.009471784986774088,
        "Eccentricity": 0.0,
        "Inclination(deg)": 45.0,
        "Latitude(deg)": 26.81468598131361,
        "Longitude(deg)": -90.82003513477821,
        "Mean Anomaly(deg)": -219.50011984051594,
        "RAAN(deg)": 219.99105891184004,
        "Satellite Name": "Constellation 1 976",
        "Satellite Number": 976,
        "Semi-Major Axis(m)": 7083131.272910544,
        "Time(s)": 158
    },
    {
        "Altitude(m)": 703780.5778974068,
        "Argument of Periapsis(deg)": 0.009531732993019492,
        "Eccentricity": 0.0,
        "Inclination(deg)": 45.0,
        "Latitude(deg)": 26.777377929024563,
        "Longitude(deg)": -90.77040789867118,
        "Mean Anomaly(deg)": -219.4394187002661,
        "RAAN(deg)": 219.99100232267446,
        "Satellite Name": "Constellation 1 976",
        "Satellite Number": 976,
        "Semi-Major Axis(m)": 7083131.272910544,
        "Time(s)": 159
    },
    {
        "Altitude(m)": 703775.3861775756,
        "Argument of Periapsis(deg)": 0.009591680999264898,
        "Eccentricity": 0.0,
        "Inclination(deg)": 45.0,
        "Latitude(deg)": 26.74004932575367,
        "Longitude(deg)": -90.72081577217111,
        "Mean Anomaly(deg)": -219.37871756001616,
        "RAAN(deg)": 219.9909457335089,
        "Satellite Name": "Constellation 1 976",
        "Satellite Number": 976,
        "Semi-Major Axis(m)": 7083131.272910544,
        "Time(s)": 160
    },
    {
        "Altitude(m)": 703770.2022545126,
        "Argument of Periapsis(deg)": 0.009651629005510304,
        "Eccentricity": 0.0,
        "Inclination(deg)": 45.0,
        "Latitude(deg)": 26.70270021761968,
        "Longitude(deg)": -90.67125869475704,
        "Mean Anomaly(deg)": -219.31801641976625,
        "RAAN(deg)": 219.99088914434336,
        "Satellite Name": "Constellation 1 976",
        "Satellite Number": 976,
        "Semi-Major Axis(m)": 7083131.272910544,
        "Time(s)": 161
    },
    {
        "Altitude(m)": 703765.0261663329,
        "Argument of Periapsis(deg)": 0.00971157701175571,
        "Eccentricity": 0.0,
        "Inclination(deg)": 45.0,
        "Latitude(deg)": 26.665330650673916,
        "Longitude(deg)": -90.62173660589737,
        "Mean Anomaly(deg)": -219.25731527951635,
        "RAAN(deg)": 219.99083255517775,
        "Satellite Name": "Constellation 1 976",
        "Satellite Number": 976,
        "Semi-Major Axis(m)": 7083131.272910544,
        "Time(s)": 162
    },
    {
        "Altitude(m)": 703759.8579511261,
        "Argument of Periapsis(deg)": 0.009771525018001118,
        "Eccentricity": 0.0,
        "Inclination(deg)": 45.0,
        "Latitude(deg)": 26.62794067090058,
        "Longitude(deg)": -90.5722496131475,
        "Mean Anomaly(deg)": -219.19661413926642,
        "RAAN(deg)": 219.9907759660122,
        "Satellite Name": "Constellation 1 976",
        "Satellite Number": 976,
        "Semi-Major Axis(m)": 7083131.272910544,
        "Time(s)": 163
    },
    {
        "Altitude(m)": 703754.6976469607,
        "Argument of Periapsis(deg)": 0.00983147302424652,
        "Eccentricity": 0.0,
        "Inclination(deg)": 45.0,
        "Latitude(deg)": 26.59053032421677,
        "Longitude(deg)": -90.52279731976283,
        "Mean Anomaly(deg)": -219.13591299901654,
        "RAAN(deg)": 219.9907193768466,
        "Satellite Name": "Constellation 1 976",
        "Satellite Number": 976,
        "Semi-Major Axis(m)": 7083131.272910544,
        "Time(s)": 164
    },
    {
        "Altitude(m)": 703749.5452918796,
        "Argument of Periapsis(deg)": 0.009891421030491928,
        "Eccentricity": 0.0,
        "Inclination(deg)": 45.0,
        "Latitude(deg)": 26.553099656472597,
        "Longitude(deg)": -90.47337983328002,
        "Mean Anomaly(deg)": -219.07521185876664,
        "RAAN(deg)": 219.99066278768106,
        "Satellite Name": "Constellation 1 976",
        "Satellite Number": 976,
        "Semi-Major Axis(m)": 7083131.272910544,
        "Time(s)": 165
    },
    {
        "Altitude(m)": 703744.4009239059,
        "Argument of Periapsis(deg)": 0.009951369036737332,
        "Eccentricity": 0.0,
        "Inclination(deg)": 45.0,
        "Latitude(deg)": 26.515648713451334,
        "Longitude(deg)": -90.42399709313034,
        "Mean Anomaly(deg)": -219.01451071851676,
        "RAAN(deg)": 219.99060619851545,
        "Satellite Name": "Constellation 1 976",
        "Satellite Number": 976,
        "Semi-Major Axis(m)": 7083131.272910544,
        "Time(s)": 166
    },
    {
        "Altitude(m)": 703739.2645810413,
        "Argument of Periapsis(deg)": 0.010011317042982738,
        "Eccentricity": 0.0,
        "Inclination(deg)": 45.0,
        "Latitude(deg)": 26.478177540869275,
        "Longitude(deg)": -90.37464903873646,
        "Mean Anomaly(deg)": -218.95380957826686,
        "RAAN(deg)": 219.9905496093499,
        "Satellite Name": "Constellation 1 976",
        "Satellite Number": 976,
        "Semi-Major Axis(m)": 7083131.272910544,
        "Time(s)": 167
    },
    {
        "Altitude(m)": 703734.136301258,
        "Argument of Periapsis(deg)": 0.010071265049228144,
        "Eccentricity": 0.0,
        "Inclination(deg)": 45.0,
        "Latitude(deg)": 26.44068618437606,
        "Longitude(deg)": -90.32533560951315,
        "Mean Anomaly(deg)": -218.89310843801692,
        "RAAN(deg)": 219.99049302018435,
        "Satellite Name": "Constellation 1 976",
        "Satellite Number": 976,
        "Semi-Major Axis(m)": 7083131.272910544,
        "Time(s)": 168
    },
    {
        "Altitude(m)": 703729.0161225159,
        "Argument of Periapsis(deg)": 0.01013121305547355,
        "Eccentricity": 0.0,
        "Inclination(deg)": 45.0,
        "Latitude(deg)": 26.403174689554774,
        "Longitude(deg)": -90.27605674486786,
        "Mean Anomaly(deg)": -218.83240729776708,
        "RAAN(deg)": 219.99043643101876,
        "Satellite Name": "Constellation 1 976",
        "Satellite Number": 976,
        "Semi-Major Axis(m)": 7083131.272910544,
        "Time(s)": 169
    },
    {
        "Altitude(m)": 703723.9040827357,
        "Argument of Periapsis(deg)": 0.010191161061718957,
        "Eccentricity": 0.0,
        "Inclination(deg)": 45.0,
        "Latitude(deg)": 26.365643101921847,
        "Longitude(deg)": -90.22681238420051,
        "Mean Anomaly(deg)": -218.77170615751714,
        "RAAN(deg)": 219.9903798418532,
        "Satellite Name": "Constellation 1 976",
        "Satellite Number": 976,
        "Semi-Major Axis(m)": 7083131.272910544,
        "Time(s)": 170
    }
]